{"fetched_at":"2026-07-18T06:27:50.593Z","source":"https://celestrak.org/NORAD/elements/gp.php?GROUP=spire&FORMAT=JSON","constellation":"spire","records":[{"OBJECT_NAME":"LEMUR-2-VALHALLA","OBJECT_ID":"2024-022B","EPOCH":"2026-07-17T13:07:27.983424","CLASSIFICATION_TYPE":"U","MEAN_MOTION":15.40531219,"ECCENTRICITY":0.0008965,"INCLINATION":97.4075,"RA_OF_ASC_NODE":48.918,"ARG_OF_PERICENTER":16.2163,"MEAN_ANOMALY":343.9368,"EPHEMERIS_TYPE":0,"NORAD_CAT_ID":58900,"ELEMENT_SET_NO":999,"REV_AT_EPOCH":13694,"BSTAR":0.00021353,"MEAN_MOTION_DOT":0.00008595,"MEAN_MOTION_DDOT":0},{"OBJECT_NAME":"LEMUR-2-CAEL","OBJECT_ID":"2024-022E","EPOCH":"2026-07-17T12:43:43.860864","CLASSIFICATION_TYPE":"U","MEAN_MOTION":15.41903062,"ECCENTRICITY":0.0006839,"INCLINATION":97.4057,"RA_OF_ASC_NODE":49.892,"ARG_OF_PERICENTER":1.1188,"MEAN_ANOMALY":359.0073,"EPHEMERIS_TYPE":0,"NORAD_CAT_ID":58903,"ELEMENT_SET_NO":999,"REV_AT_EPOCH":13701,"BSTAR":0.00021963,"MEAN_MOTION_DOT":0.00009251,"MEAN_MOTION_DDOT":0},{"OBJECT_NAME":"LEMUR-2-JOHNNYTRUONG","OBJECT_ID":"2024-043BA","EPOCH":"2026-07-17T21:46:42.627648","CLASSIFICATION_TYPE":"U","MEAN_MOTION":15.62709855,"ECCENTRICITY":0.00039327,"INCLINATION":97.5403,"RA_OF_ASC_NODE":352.5709,"ARG_OF_PERICENTER":86.3859,"MEAN_ANOMALY":273.7848,"EPHEMERIS_TYPE":0,"NORAD_CAT_ID":59146,"ELEMENT_SET_NO":999,"REV_AT_EPOCH":13283,"BSTAR":0.00031237698,"MEAN_MOTION_DOT":0.00027939,"MEAN_MOTION_DDOT":0},{"OBJECT_NAME":"LEMUR-2-TOMATOKECHUP","OBJECT_ID":"2024-149D","EPOCH":"2026-07-17T18:49:37.650720","CLASSIFICATION_TYPE":"U","MEAN_MOTION":15.36614025,"ECCENTRICITY":0.00033934,"INCLINATION":97.3792,"RA_OF_ASC_NODE":280.9209,"ARG_OF_PERICENTER":117.332,"MEAN_ANOMALY":242.827,"EPHEMERIS_TYPE":0,"NORAD_CAT_ID":60471,"ELEMENT_SET_NO":999,"REV_AT_EPOCH":10686,"BSTAR":0.00016234928,"MEAN_MOTION_DOT":0.00005722,"MEAN_MOTION_DDOT":0},{"OBJECT_NAME":"LEMUR-2-STELLA","OBJECT_ID":"2024-149BT","EPOCH":"2026-07-17T04:34:57.477792","CLASSIFICATION_TYPE":"U","MEAN_MOTION":15.12393884,"ECCENTRICITY":0.00012249,"INCLINATION":97.6732,"RA_OF_ASC_NODE":280.7889,"ARG_OF_PERICENTER":121.9085,"MEAN_ANOMALY":238.2264,"EPHEMERIS_TYPE":0,"NORAD_CAT_ID":60533,"ELEMENT_SET_NO":999,"REV_AT_EPOCH":10503,"BSTAR":0.00034171112,"MEAN_MOTION_DOT":0.00005866,"MEAN_MOTION_DDOT":0},{"OBJECT_NAME":"LEMUR-2-MARHISYAM","OBJECT_ID":"2024-149BW","EPOCH":"2026-07-17T18:40:47.591904","CLASSIFICATION_TYPE":"U","MEAN_MOTION":15.11805944,"ECCENTRICITY":0.0002282,"INCLINATION":97.6874,"RA_OF_ASC_NODE":281.8587,"ARG_OF_PERICENTER":64.9251,"MEAN_ANOMALY":295.2216,"EPHEMERIS_TYPE":0,"NORAD_CAT_ID":60536,"ELEMENT_SET_NO":999,"REV_AT_EPOCH":10510,"BSTAR":0.00032727569,"MEAN_MOTION_DOT":0.00005523,"MEAN_MOTION_DDOT":0},{"OBJECT_NAME":"LEMUR-2-AHMED-ASRAR","OBJECT_ID":"2024-149DN","EPOCH":"2026-07-17T18:46:24.279744","CLASSIFICATION_TYPE":"U","MEAN_MOTION":15.13339294,"ECCENTRICITY":0.00014427,"INCLINATION":97.7001,"RA_OF_ASC_NODE":284.076,"ARG_OF_PERICENTER":194.6012,"MEAN_ANOMALY":165.5177,"EPHEMERIS_TYPE":0,"NORAD_CAT_ID":60576,"ELEMENT_SET_NO":999,"REV_AT_EPOCH":10519,"BSTAR":0.00035888334,"MEAN_MOTION_DOT":0.00006329,"MEAN_MOTION_DDOT":0},{"OBJECT_NAME":"LEMUR-2-LLOYD","OBJECT_ID":"2024-149DP","EPOCH":"2026-07-17T19:11:35.316384","CLASSIFICATION_TYPE":"U","MEAN_MOTION":15.097759,"ECCENTRICITY":0.00045204,"INCLINATION":97.6737,"RA_OF_ASC_NODE":279.9556,"ARG_OF_PERICENTER":65.7509,"MEAN_ANOMALY":294.4192,"EPHEMERIS_TYPE":0,"NORAD_CAT_ID":60577,"ELEMENT_SET_NO":999,"REV_AT_EPOCH":10501,"BSTAR":0.00026942304,"MEAN_MOTION_DOT":0.00004286,"MEAN_MOTION_DDOT":0},{"OBJECT_NAME":"LEMUR-2-SQUIRRELCOMM","OBJECT_ID":"2024-149DQ","EPOCH":"2026-07-17T11:03:00.421056","CLASSIFICATION_TYPE":"U","MEAN_MOTION":15.07457788,"ECCENTRICITY":0.0004033,"INCLINATION":97.6703,"RA_OF_ASC_NODE":279.2816,"ARG_OF_PERICENTER":316.9896,"MEAN_ANOMALY":43.1016,"EPHEMERIS_TYPE":0,"NORAD_CAT_ID":60578,"ELEMENT_SET_NO":999,"REV_AT_EPOCH":10496,"BSTAR":0.00016679,"MEAN_MOTION_DOT":0.00002465,"MEAN_MOTION_DDOT":0},{"OBJECT_NAME":"LEMUR-2-SIERRINI","OBJECT_ID":"2024-149DR","EPOCH":"2026-07-17T11:26:24.384768","CLASSIFICATION_TYPE":"U","MEAN_MOTION":15.11538566,"ECCENTRICITY":0.0006386,"INCLINATION":97.6836,"RA_OF_ASC_NODE":281.2142,"ARG_OF_PERICENTER":85.0986,"MEAN_ANOMALY":275.0973,"EPHEMERIS_TYPE":0,"NORAD_CAT_ID":60579,"ELEMENT_SET_NO":999,"REV_AT_EPOCH":10503,"BSTAR":0.0003027,"MEAN_MOTION_DOT":0.00005067,"MEAN_MOTION_DDOT":0},{"OBJECT_NAME":"LEMUR-2-WILSON","OBJECT_ID":"2025-009CP","EPOCH":"2026-07-17T16:16:05.056320","CLASSIFICATION_TYPE":"U","MEAN_MOTION":14.95280611,"ECCENTRICITY":0.00018175,"INCLINATION":97.7018,"RA_OF_ASC_NODE":276.608,"ARG_OF_PERICENTER":310.1004,"MEAN_ANOMALY":50.0058,"EPHEMERIS_TYPE":0,"NORAD_CAT_ID":62694,"ELEMENT_SET_NO":999,"REV_AT_EPOCH":8191,"BSTAR":0.00008192897,"MEAN_MOTION_DOT":0.00000845,"MEAN_MOTION_DDOT":0},{"OBJECT_NAME":"LEMUR-2-STAR-FOX","OBJECT_ID":"2025-009CR","EPOCH":"2026-07-17T04:34:53.327136","CLASSIFICATION_TYPE":"U","MEAN_MOTION":15.02855199,"ECCENTRICITY":0.00019867,"INCLINATION":97.6903,"RA_OF_ASC_NODE":279.5841,"ARG_OF_PERICENTER":34.7534,"MEAN_ANOMALY":325.382,"EPHEMERIS_TYPE":0,"NORAD_CAT_ID":62696,"ELEMENT_SET_NO":999,"REV_AT_EPOCH":8206,"BSTAR":0.00026998749,"MEAN_MOTION_DOT":0.00003558,"MEAN_MOTION_DDOT":0},{"OBJECT_NAME":"LEMUR-2-ARIANNA","OBJECT_ID":"2025-009CU","EPOCH":"2026-07-17T04:32:40.632288","CLASSIFICATION_TYPE":"U","MEAN_MOTION":15.02857687,"ECCENTRICITY":0.00023394,"INCLINATION":97.6845,"RA_OF_ASC_NODE":279.3334,"ARG_OF_PERICENTER":42.8979,"MEAN_ANOMALY":317.2428,"EPHEMERIS_TYPE":0,"NORAD_CAT_ID":62699,"ELEMENT_SET_NO":999,"REV_AT_EPOCH":8206,"BSTAR":0.00028272678,"MEAN_MOTION_DOT":0.00003729,"MEAN_MOTION_DDOT":0},{"OBJECT_NAME":"LEMUR-2-ALISIA","OBJECT_ID":"2025-009DB","EPOCH":"2026-07-17T11:51:31.873824","CLASSIFICATION_TYPE":"U","MEAN_MOTION":15.03194149,"ECCENTRICITY":0.000459,"INCLINATION":97.6967,"RA_OF_ASC_NODE":280.4652,"ARG_OF_PERICENTER":122.6603,"MEAN_ANOMALY":237.5065,"EPHEMERIS_TYPE":0,"NORAD_CAT_ID":62706,"ELEMENT_SET_NO":999,"REV_AT_EPOCH":10471,"BSTAR":0.00028718,"MEAN_MOTION_DOT":0.00003823,"MEAN_MOTION_DDOT":0},{"OBJECT_NAME":"LEMUR-2-ROUNDTRIPPER","OBJECT_ID":"2025-009DG","EPOCH":"2026-07-17T11:56:40.543008","CLASSIFICATION_TYPE":"U","MEAN_MOTION":15.0425223,"ECCENTRICITY":0.0004501,"INCLINATION":97.7248,"RA_OF_ASC_NODE":281.1409,"ARG_OF_PERICENTER":59.8268,"MEAN_ANOMALY":300.3403,"EPHEMERIS_TYPE":0,"NORAD_CAT_ID":62711,"ELEMENT_SET_NO":999,"REV_AT_EPOCH":8218,"BSTAR":0.00030046,"MEAN_MOTION_DOT":0.00004118,"MEAN_MOTION_DDOT":0},{"OBJECT_NAME":"LEMUR-2-MYNAMEISJEFF","OBJECT_ID":"2025-009DH","EPOCH":"2026-07-16T19:56:37.511808","CLASSIFICATION_TYPE":"U","MEAN_MOTION":15.0423821,"ECCENTRICITY":0.00042188,"INCLINATION":97.7299,"RA_OF_ASC_NODE":280.8736,"ARG_OF_PERICENTER":93.9545,"MEAN_ANOMALY":266.2163,"EPHEMERIS_TYPE":0,"NORAD_CAT_ID":62712,"ELEMENT_SET_NO":999,"REV_AT_EPOCH":8208,"BSTAR":0.00032713731,"MEAN_MOTION_DOT":0.00004487,"MEAN_MOTION_DDOT":0}]}
