LEMUR-2-VALHALLA        
1 58900U 24022B   26198.54685166  .00008595  00000+0  21353-3 0  9992
2 58900  97.4075  48.9180 0008965  16.2163 343.9368 15.40531219136943
LEMUR-2-CAEL            
1 58903U 24022E   26198.53036876  .00009251  00000+0  21963-3 0  9999
2 58903  97.4057  49.8920 0006839   1.1188 359.0073 15.41903062137016
LEMUR-2-JOHNNYTRUONG    
1 59146U 24043BA  26198.90743782  .00027939  00000+0  31238-3 0  9993
2 59146  97.5403 352.5709 0003932  86.3859 273.7848 15.62709855132836
LEMUR-2-TOMATOKECHUP    
1 60471U 24149D   26198.78446355  .00005722  00000+0  16235-3 0  9991
2 60471  97.3792 280.9209 0003393 117.3320 242.8270 15.36614025106861
LEMUR-2-STELLA          
1 60533U 24149BT  26198.19094303  .00005866  00000+0  34171-3 0  9995
2 60533  97.6732 280.7889 0001224 121.9085 238.2264 15.12393884105030
LEMUR-2-MARHISYAM       
1 60536U 24149BW  26198.77832861  .00005523  00000+0  32728-3 0  9997
2 60536  97.6874 281.8587 0002282  64.9251 295.2216 15.11805944105105
LEMUR-2-AHMED-ASRAR     
1 60576U 24149DN  26198.78222546  .00006329  00000+0  35888-3 0  9990
2 60576  97.7001 284.0760 0001442 194.6012 165.5177 15.13339294105199
LEMUR-2-LLOYD           
1 60577U 24149DP  26198.79971431  .00004286  00000+0  26942-3 0  9997
2 60577  97.6737 279.9556 0004520  65.7509 294.4192 15.09775900105013
LEMUR-2-SQUIRRELCOMM    
1 60578U 24149DQ  26198.46042154  .00002465  00000+0  16679-3 0  9996
2 60578  97.6703 279.2816 0004033 316.9896  43.1016 15.07457788104964
LEMUR-2-SIERRINI        
1 60579U 24149DR  26198.47667112  .00005067  00000+0  30270-3 0  9999
2 60579  97.6836 281.2142 0006386  85.0986 275.0973 15.11538566105030
LEMUR-2-WILSON          
1 62694U 25009CP  26198.67783630  .00000845  00000+0  81929-4 0  9998
2 62694  97.7018 276.6080 0001817 310.1004  50.0058 14.95280611 81910
LEMUR-2-STAR-FOX        
1 62696U 25009CR  26198.19089499  .00003558  00000+0  26999-3 0  9998
2 62696  97.6903 279.5841 0001986  34.7534 325.3820 15.02855199 82065
LEMUR-2-ARIANNA         
1 62699U 25009CU  26198.18935917  .00003729  00000+0  28273-3 0  9992
2 62699  97.6845 279.3334 0002339  42.8979 317.2428 15.02857687 82062
LEMUR-2-ALISIA          
1 62706U 25009DB  26198.49411891  .00003823  00000+0  28718-3 0  9994
2 62706  97.6967 280.4652 0004590 122.6603 237.5065 15.03194149104710
LEMUR-2-ROUNDTRIPPER    
1 62711U 25009DG  26198.49769147  .00004118  00000+0  30046-3 0  9995
2 62711  97.7248 281.1409 0004501  59.8268 300.3403 15.04252230 82185
LEMUR-2-MYNAMEISJEFF    
1 62712U 25009DH  26197.83098972  .00004487  00000+0  32714-3 0  9997
2 62712  97.7299 280.8736 0004218  93.9545 266.2163 15.04238210 82087
